[{"OBJECT_NAME":"SKYSAT-C6","OBJECT_ID":"2017-068F","EPOCH":"2026-03-09T21:33:49.392576","MEAN_MOTION":15.32504544,"ECCENTRICITY":0.00036369,"INCLINATION":97.44,"RA_OF_ASC_NODE":205.7173,"ARG_OF_PERICENTER":127.5085,"MEAN_ANOMALY":232.6488,"EPHEMERIS_TYPE":0,"CLASSIFICATION_TYPE":"U","NORAD_CAT_ID":42992,"ELEMENT_SET_NO":999,"REV_AT_EPOCH":46710,"BSTAR":0.00039699196,"MEAN_MOTION_DOT":0.0001239,"MEAN_MOTION_DDOT":0},{"OBJECT_NAME":"STARLINK-31007","OBJECT_ID":"2024-020P","EPOCH":"2026-03-09T23:19:18.078528","MEAN_MOTION":15.30200907,"ECCENTRICITY":0.00010219,"INCLINATION":53.1604,"RA_OF_ASC_NODE":321.1552,"ARG_OF_PERICENTER":107.3148,"MEAN_ANOMALY":252.7964,"EPHEMERIS_TYPE":0,"CLASSIFICATION_TYPE":"U","NORAD_CAT_ID":58889,"ELEMENT_SET_NO":999,"REV_AT_EPOCH":11811,"BSTAR":0.00038023266,"MEAN_MOTION_DOT":0.00010919,"MEAN_MOTION_DDOT":0}]
